STARLINK-30494          
1 57970U 23151G   26068.36049035 -.00001272  00000+0 -35691-4 0  9993
2 57970  43.0027 192.4566 0001155 241.5536 118.5200 15.28417441137406
STARLINK-35887          
1 66959U 25288A   26068.26435370  .00025292  00000+0  92626-3 0  9999
2 66959  43.0020  25.7544 0000996 280.2159  79.8580 15.27551778 15229
