[{"OBJECT_NAME":"STARLINK-30494","OBJECT_ID":"2023-151G","EPOCH":"2026-03-09T08:39:06.366240","MEAN_MOTION":15.28417441,"ECCENTRICITY":0.00011553,"INCLINATION":43.0027,"RA_OF_ASC_NODE":192.4566,"ARG_OF_PERICENTER":241.5536,"MEAN_ANOMALY":118.52,"EPHEMERIS_TYPE":0,"CLASSIFICATION_TYPE":"U","NORAD_CAT_ID":57970,"ELEMENT_SET_NO":999,"REV_AT_EPOCH":13740,"BSTAR":-3.569111e-5,"MEAN_MOTION_DOT":-1.272e-5,"MEAN_MOTION_DDOT":0},{"OBJECT_NAME":"STARLINK-35887","OBJECT_ID":"2025-288A","EPOCH":"2026-03-09T06:20:40.159680","MEAN_MOTION":15.27551778,"ECCENTRICITY":9.966e-5,"INCLINATION":43.002,"RA_OF_ASC_NODE":25.7544,"ARG_OF_PERICENTER":280.2159,"MEAN_ANOMALY":79.858,"EPHEMERIS_TYPE":0,"CLASSIFICATION_TYPE":"U","NORAD_CAT_ID":66959,"ELEMENT_SET_NO":999,"REV_AT_EPOCH":1522,"BSTAR":0.00092625526,"MEAN_MOTION_DOT":0.00025292,"MEAN_MOTION_DDOT":0}]
